OBJECT_NAME,OBJECT_ID,EPOCH,MEAN_MOTION,ECCENTRICITY,INCLINATION,RA_OF_ASC_NODE,ARG_OF_PERICENTER,MEAN_ANOMALY,EPHEMERIS_TYPE,CLASSIFICATION_TYPE,NORAD_CAT_ID,ELEMENT_SET_NO,REV_AT_EPOCH,BSTAR,MEAN_MOTION_DOT,MEAN_MOTION_DDOT
LEMUR-2-CELIJO-SB-PK,2025-276DW,2026-06-27T21:50:06.268992,15.00101612,.00080572,97.5231,249.3348,106.9093,253.3015,0,U,66781,999,2423,.51297266E-3,.6345E-4,0
LEMUR-2-FINNIAN,2025-276DX,2026-06-27T16:24:48.896928,15.00467626,.00086202,97.5329,249.3439,58.2576,301.9487,0,U,66782,999,2157,.27086211E-3,.3354E-4,0
LEMUR-2-STARLIGHT,2025-276DY,2026-06-27T17:11:31.811424,14.99157143,.0014682,97.5246,248.9952,98.0391,262.2499,0,U,66783,999,3177,.53882604E-3,.6515E-4,0
LEMUR-2-TARTIFLETTE,2025-276DZ,2026-06-27T21:57:28.554048,14.99168655,.00136416,97.5247,249.1946,104.6503,255.6234,0,U,66784,999,3180,.47004693E-3,.5675E-4,0
LEMUR-2-VUKASIN,2025-276EA,2026-06-27T15:10:54.542208,15.00428524,.0005442,97.5291,249.2441,100.1260,260.0579,0,U,66785,999,3171,.12803703E-3,.1553E-4,0
LEMUR-2-HOTSPUR-TOM,2025-276EB,2026-06-27T21:47:49.671456,14.99068473,.00146261,97.5241,249.1670,96.4908,263.7981,0,U,66786,999,3173,.46240961E-3,.5569E-4,0
LEMUR-2-MYRA,2025-276EC,2026-06-27T22:21:19.260288,15.00391245,.00178105,97.5221,249.4600,106.9857,253.3321,0,U,66787,999,3182,.57208292E-3,.7156E-4,0
LEMUR-2 FIKRETDENGIZ,2026-004A,2026-06-27T21:23:05.819712,14.88400861,.00106007,97.8013,177.2846,103.1002,257.1398,0,U,67363,999,2487,.4552202E-3,.417E-4,0
TWILIGHT-1 OBJECT B,2026-004B,2026-06-27T17:14:22.968960,14.87737085,.00102893,97.8065,177.1251,94.8747,265.3645,0,U,67364,999,2485,.20450812E-3,.1812E-4,0
LEMUR-2-MARIO-SOUSA,2026-004C,2026-06-27T17:43:55.576416,14.88594321,.00101923,97.7984,177.1303,104.5863,255.6485,0,U,67365,999,2486,.5089364E-3,.4691E-4,0
LEMUR-2-SONNENBLUME,2026-004E,2026-06-27T19:20:34.435104,14.88369415,.00096762,97.7984,177.1769,105.7821,254.4464,0,U,67367,999,2487,.36208691E-3,.3302E-4,0
LEMUR-2-WOBLER,2026-004F,2026-06-27T19:09:03.363840,14.88585253,.00099931,97.8035,177.3020,97.0272,263.2082,0,U,67368,999,2487,.42750529E-3,.393E-4,0
LEMUR-2-GRAM-E-SUE,2026-004H,2026-06-27T22:09:46.374624,14.88515957,.00087633,97.7971,177.3084,106.8039,253.4140,0,U,67370,999,2489,.26014057E-3,.2365E-4,0
LEMUR-2-KATIE,2026-004AA,2026-06-27T13:31:31.172736,14.90109927,.00046868,97.8032,177.4471,71.9515,288.2213,0,U,67387,999,2485,.34979585E-3,.3328E-4,0
LEMUR-2-HCS-BAZUS,2026-004AB,2026-06-27T23:09:56.321280,14.90172714,.00041405,97.8020,177.8239,69.6807,290.4856,0,U,67388,999,2491,.52113119E-3,.4994E-4,0
