LEMUR-2-CELIJO-SB-PK    
1 66781U 25276DW  26178.90979478  .00006345  00000+0  51297-3 0  9991
2 66781  97.5231 249.3348 0008057 106.9093 253.3015 15.00101612 24235
LEMUR-2-FINNIAN         
1 66782U 25276DX  26178.68389927  .00003354  00000+0  27086-3 0  9997
2 66782  97.5329 249.3439 0008620  58.2576 301.9487 15.00467626 21573
LEMUR-2-STARLIGHT       
1 66783U 25276DY  26178.71634041  .00006515  00000+0  53883-3 0  9998
2 66783  97.5246 248.9952 0014682  98.0391 262.2499 14.99157143 31771
LEMUR-2-TARTIFLETTE     
1 66784U 25276DZ  26178.91491382  .00005675  00000+0  47005-3 0  9995
2 66784  97.5247 249.1946 0013641 104.6503 255.6234 14.99168655 31809
LEMUR-2-VUKASIN         
1 66785U 25276EA  26178.63257572  .00001553  00000+0  12804-3 0  9996
2 66785  97.5291 249.2441 0005442 100.1260 260.0579 15.00428524 31710
LEMUR-2-HOTSPUR-TOM     
1 66786U 25276EB  26178.90821379  .00005569  00000+0  46241-3 0  9992
2 66786  97.5241 249.1670 0014626  96.4908 263.7981 14.99068473 31738
LEMUR-2-MYRA            
1 66787U 25276EC  26178.93147292  .00007156  00000+0  57208-3 0  9990
2 66787  97.5221 249.4600 0017810 106.9857 253.3321 15.00391245 31823
LEMUR-2 FIKRETDENGIZ    
1 67363U 26004A   26178.89103958  .00004170  00000+0  45522-3 0  9996
2 67363  97.8013 177.2846 0010600 103.1002 257.1398 14.88400861 24870
TWILIGHT-1 OBJECT B     
1 67364U 26004B   26178.71832140  .00001812  00000+0  20451-3 0  9994
2 67364  97.8065 177.1251 0010289  94.8747 265.3645 14.87737085 24856
LEMUR-2-MARIO-SOUSA     
1 67365U 26004C   26178.73883769  .00004691  00000+0  50894-3 0  9992
2 67365  97.7984 177.1303 0010192 104.5863 255.6485 14.88594321 24865
LEMUR-2-SONNENBLUME     
1 67367U 26004E   26178.80595411  .00003302  00000+0  36209-3 0  9998
2 67367  97.7984 177.1769 0009676 105.7821 254.4464 14.88369415 24874
LEMUR-2-WOBLER          
1 67368U 26004F   26178.79795560  .00003930  00000+0  42751-3 0  9990
2 67368  97.8035 177.3020 0009993  97.0272 263.2082 14.88585253 24874
LEMUR-2-GRAM-E-SUE      
1 67370U 26004H   26178.92345341  .00002365  00000+0  26014-3 0  9991
2 67370  97.7971 177.3084 0008763 106.8039 253.4140 14.88515957 24891
LEMUR-2-KATIE           
1 67387U 26004AA  26178.56355524  .00003328  00000+0  34980-3 0  9994
2 67387  97.8032 177.4471 0004686  71.9515 288.2213 14.90109927 24852
LEMUR-2-HCS-BAZUS       
1 67388U 26004AB  26178.96523520  .00004994  00000+0  52113-3 0  9990
2 67388  97.8020 177.8239 0004140  69.6807 290.4856 14.90172714 24918
